1 37948U 11073A 26161.78579999 -.00000166 00000+0 00000+0 0 9994 
2 37948 47.6911 271.6265 0113697 221.6290 140.5292 1.00274252 53070 
1 37951U 11074B 26161.56711189 -.00000036 00000+0 00000+0 0 9990 
2 37951 8.7363 73.9045 0002233 19.7038 176.4594 1.00269771 52983 
1 38091U 12008A 26162.13579271 .00000073 00000+0 00000+0 0 9992 
2 38091 3.5573 69.7367 0009214 274.7413 22.5594 1.00270547 52301 
1 38250U 12018A 26159.59735353 -.00000057 00000+0 00000+0 0 9994 
2 38250 55.7660 305.1650 0019966 274.7700 84.9929 1.86230188 95784 
1 38251U 12018B 26160.60355450 -.00000060 00000+0 00000+0 0 9999 
2 38251 55.6651 304.3456 0011146 277.0468 82.8157 1.86229817 95808 
1 38652U 12036A 26161.69740811 .00000051 00000+0 00000+0 0 9992 
2 38652 0.0496 311.6239 0001848 129.2695 74.2159 1.00271674 44391 
1 38775U 12050B 26161.92419310 -.00000053 00000+0 00000+0 0 9990 
2 38775 56.5389 63.1015 0013801 356.5359 3.4771 1.86230876 93198 
1 38779U 12051B 26162.14055940 .00000000 00000+0 00000+0 0 9996 
2 38779 0.0162 339.0528 0007738 111.8500 302.2116 1.00269517 50030 
1 38833U 12053A 26161.33630210 .00000100 00000+0 00000+0 0 9999 
2 38833 53.5847 143.8799 0179897 65.6609 296.2049 2.00567339 99301 
1 38857U 12055A 26161.43656541 .00000018 00000+0 00000+0 0 9991 
2 38857 55.8025 101.7308 0005026 304.3600 55.5599 1.70473368 84893 
1 38953U 12059A 26161.87813281 -.00000160 00000+0 00000+0 0 9995 
2 38953 4.4041 73.5919 0009891 324.9536 260.8310 1.00273719 49841 
1 38977U 12061A 26161.97829617 -.00000127 00000+0 00000+0 0 9998 
2 38977 10.4672 49.9410 0001940 141.4195 43.8723 1.00273172 49544 
1 39155U 13019A 26158.05554720 -.00000009 00000+0 00000+0 0 9995 
2 39155 65.4143 73.9444 0023464 234.9067 124.8959 2.13103506102067 
1 39166U 13023A 26161.20304652 -.00000033 00000+0 00000+0 0 9997 
2 39166 54.5096 269.2583 0141583 51.0187 310.2504 2.00563466 95747 
1 39199U 13034A 26142.85947303 .00000059 00000+0 00000+0 0 9998 
2 39199 35.6649 64.2334 0016618 185.3754 355.4646 1.00280263 47111 
1 39533U 14008A 26162.20181998 .00000102 00000+0 00000+0 0 9992 
2 39533 53.6537 149.5638 0084243 231.1841 128.0659 2.00559361 89561 
1 39617U 14011B 26162.20007819 .00000154 00000+0 00000+0 0 9995 
2 39617 0.0519 325.0301 0001912 103.4036 286.6346 1.00270955 44605 
1 39620U 14012A 26160.36073044 -.00000033 00000+0 00000+0 0 9995 
2 39620 65.3026 314.2024 0010486 325.9791 33.9512 2.13103521 95077 
1 39635U 14017A 26161.77869507 .00000125 00000+0 00000+0 0 9990 
2 39635 28.9327 240.5136 0022979 189.5605 164.4642 1.00274335 44722 
1 39727U 14023A 26162.14289941 -.00000252 00000+0 00000+0 0 9991 
2 39727 5.1172 69.8130 0002758 37.8759 297.8784 1.00266164 44294 
1 39741U 14026A 26161.97866983 -.00000062 00000+0 00000+0 0 9996 
2 39741 56.5014 331.7592 0038221 326.6599 33.1060 2.00561372 88413 
1 40001U 14032A 26160.99983927 -.00000036 00000+0 00000+0 0 9994 
2 40001 65.2367 313.9283 0007101 183.5969 176.3944 2.13106100 93308 
1 40105U 14045A 26161.07317524 -.00000008 00000+0 00000+0 0 9996 
2 40105 55.3487 88.7484 0033003 118.3358 241.9880 2.00557900 85936 
1 40128U 14050A 26160.33214522 -.00000053 00000+0 00000+0 0 9999 
2 40128 48.8841 273.7586 1673300 179.0833 181.3092 1.85520027 78176 
1 40129U 14050B 26160.58770951 -.00000052 00000+0 00000+0 0 9999 
2 40129 48.9007 272.8335 1674676 179.8278 180.2807 1.85520607 80340 
1 40269U 14061A 26161.87813236 -.00000146 00000+0 00000+0 0 9997 
2 40269 6.5024 89.0489 0022686 1.7061 207.6145 1.00270328 42629 
1 40294U 14068A 26161.94079314 -.00000063 00000+0 00000+0 0 9999 
2 40294 56.9833 31.1954 0066915 70.3530 290.4228 2.00575724 85083 
1 40315U 14075A 26161.26183883 .00000117 00000+0 00000+0 0 9992 
2 40315 63.6159 190.6117 0022546 212.2305 147.7030 2.13101499 89700 
1 40534U 15013A 26162.07921038 .00000094 00000+0 00000+0 0 9994 
2 40534 53.1684 204.4303 0109375 40.0978 320.7887 2.00551724 81701 
1 40544U 15017A 26159.41409852 -.00000063 00000+0 00000+0 0 9995 
2 40544 56.7896 341.8347 0002095 280.5229 79.4690 1.70476076 69057 
1 40545U 15017B 26160.84303855 -.00000063 00000+0 00000+0 0 9991 
2 40545 56.7980 341.8144 0001878 250.6263 109.3692 1.70475572 32124 
